# 2020  5 21  6 28  4.82  29.3750  104.4992    4.91 0.00  0.27  0.37  0.08      12001
GSGS031     1.190   0.500   P
GSGS031     2.150   0.500   S
GSGS030     1.180   0.500   P
GSGS030     2.150   0.500   S
GSGS021     1.200   0.500   P
GSGS021     2.270   0.500   S
GSGS022     1.220   0.500   P
GSGS022     2.280   0.500   S
GSGS020     1.260   0.500   P
GSGS020     2.350   0.500   S
GSGS023     1.260   0.500   P
GSGS023     2.320   0.500   S
GSGS010     1.630   0.500   P
GSGS010     3.070   0.500   S
GSGS012     1.650   0.500   P
GSGS012     3.040   0.500   S
MLML34      4.030   0.500   S
MLML34      2.260   0.500   P
MLML50      2.360   0.500   P
MLML50      4.000   0.500   S
MLML02      4.100   0.500   S
MLML02      2.200   0.500   P
MLML66      2.340   0.500   P
MLML66      4.070   0.500   S
MLML17      4.110   0.500   S
MLML17      2.280   0.500   P
MLML77      2.300   0.500   P
MLML77      4.140   0.500   S
GSGS041     2.980   0.500   P
GSGS043     3.050   0.500   P
GSGS040     3.010   0.500   P
GSGS051     8.390   0.500   S
GSGS051     4.710   0.500   P
GSGS050     4.860   0.500   P
GSGS053     8.830   0.500   S
GSGS053     4.870   0.500   P
# 2020  5 21  6 54 18.07  29.3750  104.5032    5.25 0.00  0.30  0.43  0.10      12028
GSGS031     1.240   0.500   P
GSGS031     2.180   0.500   S
GSGS030     1.240   0.500   P
GSGS030     2.180   0.500   S
GSGS021     1.330   0.500   P
GSGS021     2.390   0.500   S
GSGS022     1.310   0.500   P
GSGS022     2.400   0.500   S
GSGS020     1.340   0.500   P
GSGS020     2.440   0.500   S
GSGS023     1.340   0.500   P
GSGS023     2.420   0.500   S
GSGS010     1.770   0.500   P
GSGS010     3.140   0.500   S
GSGS012     1.760   0.500   P
GSGS012     3.150   0.500   S
MLML34      4.050   0.500   S
MLML34      2.300   0.500   P
MLML50      4.050   0.500   S
MLML50      2.260   0.500   P
MLML66      4.110   0.500   S
MLML66      2.330   0.500   P
MLML02      2.280   0.500   P
MLML77      2.440   0.500   P
MLML77      4.150   0.500   S
MLML17      4.170   0.500   S
MLML17      2.310   0.500   P
GSGS041     3.140   0.500   P
GSGS043     5.440   0.500   S
GSGS040     3.140   0.500   P
GSGS053     4.660   0.500   P
